CCSDS_OMM_VERS = 2.0
CREATION_DATE  = 
ORIGINATOR     = 

OBJECT_NAME    = SL-3 R/B
OBJECT_ID      = 1982-079B
CENTER_NAME    = EARTH
REF_FRAME      = TEME
TIME_SYSTEM    = UTC
MEAN_ELEMENT_THEORY = SGP/SGP4

EPOCH          = 2026-01-24T05:31:42.987360
MEAN_MOTION    = 15.24160482
ECCENTRICITY   = .0024622
INCLINATION    = 81.1442
RA_OF_ASC_NODE = 245.5554
ARG_OF_PERICENTER = 318.9422
MEAN_ANOMALY   = 40.9957

EPHEMERIS_TYPE = 0
CLASSIFICATION_TYPE = U
NORAD_CAT_ID   = 13403
ELEMENT_SET_NO = 999
REV_AT_EPOCH   = 37092
BSTAR          = .33407614E-3
MEAN_MOTION_DOT = .8225E-4
MEAN_MOTION_DDOT = 0

CCSDS_OMM_VERS = 2.0
CREATION_DATE  = 
ORIGINATOR     = 

OBJECT_NAME    = SL-14 R/B
OBJECT_ID      = 1982-092B
CENTER_NAME    = EARTH
REF_FRAME      = TEME
TIME_SYSTEM    = UTC
MEAN_ELEMENT_THEORY = SGP/SGP4

EPOCH          = 2026-01-24T04:10:52.187232
MEAN_MOTION    = 14.86609706
ECCENTRICITY   = .00218863
INCLINATION    = 82.5681
RA_OF_ASC_NODE = 183.0237
ARG_OF_PERICENTER = 89.0598
MEAN_ANOMALY   = 84.0047

EPHEMERIS_TYPE = 0
CLASSIFICATION_TYPE = U
NORAD_CAT_ID   = 13553
ELEMENT_SET_NO = 999
REV_AT_EPOCH   = 32231
BSTAR          = .12160496E-3
MEAN_MOTION_DOT = .1107E-4
MEAN_MOTION_DDOT = 0

CCSDS_OMM_VERS = 2.0
CREATION_DATE  = 
ORIGINATOR     = 

OBJECT_NAME    = SL-3 R/B
OBJECT_ID      = 1983-010B
CENTER_NAME    = EARTH
REF_FRAME      = TEME
TIME_SYSTEM    = UTC
MEAN_ELEMENT_THEORY = SGP/SGP4

EPOCH          = 2026-01-24T03:40:36.610464
MEAN_MOTION    = 15.44787162
ECCENTRICITY   = .00166907
INCLINATION    = 81.1017
RA_OF_ASC_NODE = 56.7918
ARG_OF_PERICENTER = 197.1579
MEAN_ANOMALY   = 162.9103

EPHEMERIS_TYPE = 0
CLASSIFICATION_TYPE = U
NORAD_CAT_ID   = 13819
ELEMENT_SET_NO = 999
REV_AT_EPOCH   = 35106
BSTAR          = .44653509E-3
MEAN_MOTION_DOT = .21062E-3
MEAN_MOTION_DDOT = 0

CCSDS_OMM_VERS = 2.0
CREATION_DATE  = 
ORIGINATOR     = 

OBJECT_NAME    = SL-3 R/B
OBJECT_ID      = 1983-075B
CENTER_NAME    = EARTH
REF_FRAME      = TEME
TIME_SYSTEM    = UTC
MEAN_ELEMENT_THEORY = SGP/SGP4

EPOCH          = 2026-01-24T05:52:55.467552
MEAN_MOTION    = 15.37194504
ECCENTRICITY   = .00234099
INCLINATION    = 97.6127
RA_OF_ASC_NODE = 27.1910
ARG_OF_PERICENTER = 33.2910
MEAN_ANOMALY   = 326.9801

EPHEMERIS_TYPE = 0
CLASSIFICATION_TYPE = U
NORAD_CAT_ID   = 14208
ELEMENT_SET_NO = 999
REV_AT_EPOCH   = 32332
BSTAR          = .4861839E-3
MEAN_MOTION_DOT = .17803E-3
MEAN_MOTION_DDOT = 0

CCSDS_OMM_VERS = 2.0
CREATION_DATE  = 
ORIGINATOR     = 

OBJECT_NAME    = COSMOS 1536
OBJECT_ID      = 1984-013A
CENTER_NAME    = EARTH
REF_FRAME      = TEME
TIME_SYSTEM    = UTC
MEAN_ELEMENT_THEORY = SGP/SGP4

EPOCH          = 2026-01-23T19:04:38.441568
MEAN_MOTION    = 15.23160726
ECCENTRICITY   = .0015678
INCLINATION    = 82.5471
RA_OF_ASC_NODE = 152.4405
ARG_OF_PERICENTER = 81.7418
MEAN_ANOMALY   = 278.5596

EPHEMERIS_TYPE = 0
CLASSIFICATION_TYPE = U
NORAD_CAT_ID   = 14699
ELEMENT_SET_NO = 999
REV_AT_EPOCH   = 26578
BSTAR          = .39327703E-3
MEAN_MOTION_DOT = .9355E-4
MEAN_MOTION_DDOT = 0

CCSDS_OMM_VERS = 2.0
CREATION_DATE  = 
ORIGINATOR     = 

OBJECT_NAME    = SL-14 R/B
OBJECT_ID      = 1984-027B
CENTER_NAME    = EARTH
REF_FRAME      = TEME
TIME_SYSTEM    = UTC
MEAN_ELEMENT_THEORY = SGP/SGP4

EPOCH          = 2026-01-24T04:22:40.614528
MEAN_MOTION    = 14.85928703
ECCENTRICITY   = .00193333
INCLINATION    = 82.5425
RA_OF_ASC_NODE = 286.7597
ARG_OF_PERICENTER = 118.3332
MEAN_ANOMALY   = 241.9838

EPHEMERIS_TYPE = 0
CLASSIFICATION_TYPE = U
NORAD_CAT_ID   = 14820
ELEMENT_SET_NO = 999
REV_AT_EPOCH   = 24102
BSTAR          = .98111025E-4
MEAN_MOTION_DOT = .883E-5
MEAN_MOTION_DDOT = 0

CCSDS_OMM_VERS = 2.0
CREATION_DATE  = 
ORIGINATOR     = 

OBJECT_NAME    = SL-8 R/B
OBJECT_ID      = 1985-006B
CENTER_NAME    = EARTH
REF_FRAME      = TEME
TIME_SYSTEM    = UTC
MEAN_ELEMENT_THEORY = SGP/SGP4

EPOCH          = 2026-01-24T06:34:56.566848
MEAN_MOTION    = 14.37755937
ECCENTRICITY   = .00197762
INCLINATION    = 74.0472
RA_OF_ASC_NODE = 342.8722
ARG_OF_PERICENTER = 268.4249
MEAN_ANOMALY   = 196.3388

EPHEMERIS_TYPE = 0
CLASSIFICATION_TYPE = U
NORAD_CAT_ID   = 15483
ELEMENT_SET_NO = 999
REV_AT_EPOCH   = 14764
BSTAR          = .20692001E-3
MEAN_MOTION_DOT = .598E-5
MEAN_MOTION_DDOT = 0

CCSDS_OMM_VERS = 2.0
CREATION_DATE  = 
ORIGINATOR     = 

OBJECT_NAME    = SL-12 R/B(2)
OBJECT_ID      = 1985-042D
CENTER_NAME    = EARTH
REF_FRAME      = TEME
TIME_SYSTEM    = UTC
MEAN_ELEMENT_THEORY = SGP/SGP4

EPOCH          = 2026-01-24T04:29:03.916032
MEAN_MOTION    = 14.21967124
ECCENTRICITY   = .00358928
INCLINATION    = 71.1069
RA_OF_ASC_NODE = 181.7460
ARG_OF_PERICENTER = 198.3697
MEAN_ANOMALY   = 334.0096

EPHEMERIS_TYPE = 0
CLASSIFICATION_TYPE = U
NORAD_CAT_ID   = 15772
ELEMENT_SET_NO = 999
REV_AT_EPOCH   = 10806
BSTAR          = .1285567E-3
MEAN_MOTION_DOT = .238E-5
MEAN_MOTION_DDOT = 0

CCSDS_OMM_VERS = 2.0
CREATION_DATE  = 
ORIGINATOR     = 

OBJECT_NAME    = SL-14 R/B
OBJECT_ID      = 1985-069B
CENTER_NAME    = EARTH
REF_FRAME      = TEME
TIME_SYSTEM    = UTC
MEAN_ELEMENT_THEORY = SGP/SGP4

EPOCH          = 2026-01-24T04:20:11.563296
MEAN_MOTION    = 14.86378135
ECCENTRICITY   = .0018324
INCLINATION    = 82.5246
RA_OF_ASC_NODE = 66.7980
ARG_OF_PERICENTER = 344.6158
MEAN_ANOMALY   = 15.4499

EPHEMERIS_TYPE = 0
CLASSIFICATION_TYPE = U
NORAD_CAT_ID   = 15945
ELEMENT_SET_NO = 999
REV_AT_EPOCH   = 16622
BSTAR          = .93715249E-4
MEAN_MOTION_DOT = .853E-5
MEAN_MOTION_DDOT = 0

CCSDS_OMM_VERS = 2.0
CREATION_DATE  = 
ORIGINATOR     = 

OBJECT_NAME    = SL-16 R/B
OBJECT_ID      = 1985-097B
CENTER_NAME    = EARTH
REF_FRAME      = TEME
TIME_SYSTEM    = UTC
MEAN_ELEMENT_THEORY = SGP/SGP4

EPOCH          = 2026-01-24T07:27:08.000064
MEAN_MOTION    = 14.16590841
ECCENTRICITY   = .00089934
INCLINATION    = 71.0001
RA_OF_ASC_NODE = 233.9813
ARG_OF_PERICENTER = 312.0844
MEAN_ANOMALY   = 220.4140

EPHEMERIS_TYPE = 0
CLASSIFICATION_TYPE = U
NORAD_CAT_ID   = 16182
ELEMENT_SET_NO = 999
REV_AT_EPOCH   = 8094
BSTAR          = -.3811244E-5
MEAN_MOTION_DOT = -.56E-6
MEAN_MOTION_DDOT = 0

CCSDS_OMM_VERS = 2.0
CREATION_DATE  = 
ORIGINATOR     = 

OBJECT_NAME    = SL-14 R/B
OBJECT_ID      = 1986-006B
CENTER_NAME    = EARTH
REF_FRAME      = TEME
TIME_SYSTEM    = UTC
MEAN_ELEMENT_THEORY = SGP/SGP4

EPOCH          = 2026-01-24T05:40:45.541344
MEAN_MOTION    = 14.86742856
ECCENTRICITY   = .00780792
INCLINATION    = 82.5287
RA_OF_ASC_NODE = 301.5710
ARG_OF_PERICENTER = 60.6151
MEAN_ANOMALY   = 300.2833

EPHEMERIS_TYPE = 0
CLASSIFICATION_TYPE = U
NORAD_CAT_ID   = 16496
ELEMENT_SET_NO = 999
REV_AT_EPOCH   = 14260
BSTAR          = .1482076E-3
MEAN_MOTION_DOT = .1421E-4
MEAN_MOTION_DDOT = 0

CCSDS_OMM_VERS = 2.0
CREATION_DATE  = 
ORIGINATOR     = 

OBJECT_NAME    = COSMOS 1743
OBJECT_ID      = 1986-034A
CENTER_NAME    = EARTH
REF_FRAME      = TEME
TIME_SYSTEM    = UTC
MEAN_ELEMENT_THEORY = SGP/SGP4

EPOCH          = 2026-01-24T05:30:38.972736
MEAN_MOTION    = 15.55195511
ECCENTRICITY   = .00054017
INCLINATION    = 82.5346
RA_OF_ASC_NODE = 120.3656
ARG_OF_PERICENTER = 97.6063
MEAN_ANOMALY   = 262.5805

EPHEMERIS_TYPE = 0
CLASSIFICATION_TYPE = U
NORAD_CAT_ID   = 16719
ELEMENT_SET_NO = 999
REV_AT_EPOCH   = 17333
BSTAR          = .71636929E-3
MEAN_MOTION_DOT = .48627E-3
MEAN_MOTION_DDOT = 0

