SL-3 R/B                
1 13403U 82079B   26024.23035865  .00008225  00000+0  33408-3 0  9990
2 13403  81.1442 245.5554 0024622 318.9422  40.9957 15.24160482370926
SL-14 R/B               
1 13553U 82092B   26024.17421513  .00001107  00000+0  12160-3 0  9997
2 13553  82.5681 183.0237 0021886  89.0598  84.0047 14.86609706322318
SL-3 R/B                
1 13819U 83010B   26024.15320151  .00021062  00000+0  44654-3 0  9992
2 13819  81.1017  56.7918 0016690 197.1579 162.9103 15.44787162351061
SL-3 R/B                
1 14208U 83075B   26024.24508643  .00017803  00000+0  48618-3 0  9992
2 14208  97.6127  27.1910 0023409  33.2910 326.9801 15.37194504323326
COSMOS 1536             
1 14699U 84013A   26023.79488937  .00009355  00000+0  39328-3 0  9992
2 14699  82.5471 152.4405 0015678  81.7418 278.5596 15.23160726265788
SL-14 R/B               
1 14820U 84027B   26024.18241452  .00000883  00000+0  98111-4 0  9999
2 14820  82.5425 286.7597 0019333 118.3332 241.9838 14.85928703241028
SL-8 R/B                
1 15483U 85006B   26024.27426582  .00000598  00000+0  20692-3 0  9993
2 15483  74.0472 342.8722 0019776 268.4249 196.3388 14.37755937147641
SL-12 R/B(2)            
1 15772U 85042D   26024.18685088  .00000238  00000+0  12856-3 0  9996
2 15772  71.1069 181.7460 0035892 198.3697 334.0096 14.21967124108062
SL-14 R/B               
1 15945U 85069B   26024.18068939  .00000853  00000+0  93715-4 0  9994
2 15945  82.5246  66.7980 0018324 344.6158  15.4499 14.86378135166223
SL-16 R/B               
1 16182U 85097B   26024.31050926 -.00000056  00000+0 -38112-5 0  9999
2 16182  71.0001 233.9813 0008993 312.0844 220.4140 14.16590841 80942
SL-14 R/B               
1 16496U 86006B   26024.23663821  .00001421  00000+0  14821-3 0  9997
2 16496  82.5287 301.5710 0078079  60.6151 300.2833 14.86742856142600
COSMOS 1743             
1 16719U 86034A   26024.22961774  .00048627  00000+0  71637-3 0  9990
2 16719  82.5346 120.3656 0005401  97.6063 262.5805 15.55195511173331
